NORAD_CAT_ID,OBJECT_NAME,OBJECT_TYPE,EPOCH,MEAN_MOTION,ECCENTRICITY,INCLINATION,RA_OF_ASC_NODE,ARG_OF_PERICENTER,MEAN_ANOMALY,BSTAR,MEAN_MOTION_DOT,MEAN_MOTION_DDOT,TLE_LINE0,TLE_LINE1,TLE_LINE2,SEMIMAJOR_AXIS,PERIOD,APOGEE,PERIGEE,DECAYED
56802.0,STARLINK-6070,PAYLOAD,2023-06-13 22:00:00,15.76928562,0.0003339,70.0029,14.9952,271.1407,285.7229,-0.0058704,-0.00862216,0.0,0 STARLINK-6070,1 56802U 23078AM  23164.91667824 -.00862216  00000-0 -58704-2 0  9993,2 56802  70.0029  14.9952 0003339 271.1407 285.7229 15.76928562  1301,6717.286,91.317,341.394,336.908,0.0
56802.0,STARLINK-6070,PAYLOAD,2023-06-14 14:00:01,15.75676247,0.0003543,70.0028,13.1031,267.1305,111.6673,-0.0068173,-0.00938752,0.0,0 STARLINK-6070,1 56802U 23078AM  23165.58334491 -.00938752  00000-0 -68173-2 0  9998,2 56802  70.0028  13.1031 0003543 267.1305 111.6673 15.75676247  1307,6720.845,91.389,345.091,340.328,0.0
56802.0,STARLINK-6070,PAYLOAD,2023-06-14 20:00:01,15.75137791,0.0003523,70.0029,12.3944,271.5769,84.6692,-0.0064628,-0.00875739,0.0,0 STARLINK-6070,1 56802U 23078AM  23165.83334491 -.00875739  00000-0 -64628-2 0  9992,2 56802  70.0029  12.3944 0003523 271.5769  84.6692 15.75137791  2591,6722.376,91.421,346.609,341.873,0.0
56802.0,STARLINK-6070,PAYLOAD,2023-06-14 22:00:00,15.74977716,0.0003403,70.0029,12.1584,274.7481,193.8706,-0.0064664,-0.00870591,0.0,0 STARLINK-6070,1 56802U 23078AM  23165.91667824 -.00870591  00000-0 -64664-2 0  9991,2 56802  70.0029  12.1584 0003403 274.7481 193.8706 15.74977716  1307,6722.832,91.43,346.984,342.409,0.0
56802.0,STARLINK-6070,PAYLOAD,2023-06-15 12:00:02,15.73856522,0.0003382,70.0026,10.5077,265.5935,268.3531,-0.006976,-0.00892173,0.0,0 STARLINK-6070,1 56802U 23078AM  23166.50002315 -.00892173  00000-0 -69760-2 0  9997,2 56802  70.0026  10.5077 0003382 265.5935 268.3531 15.73856522  2698,6726.024,91.495,350.164,345.614,0.0
56802.0,STARLINK-6070,PAYLOAD,2023-06-15 14:00:01,15.73722973,0.0003547,70.0028,10.2721,265.0383,20.8212,-0.0074396,-0.00940534,0.0,0 STARLINK-6070,1 56802U 23078AM  23166.58334491 -.00940534  00000-0 -74396-2 0  9994,2 56802  70.0028  10.2721 0003547 265.0383  20.8212 15.73722973  1304,6726.405,91.503,350.655,345.884,0.0
56802.0,STARLINK-6070,PAYLOAD,2023-06-15 20:00:01,15.73182491,0.000358,70.0023,9.5656,270.7826,350.7675,-0.0070725,-0.00879982,0.0,0 STARLINK-6070,1 56802U 23078AM  23166.83334491 -.00879982  00000-0 -70725-2 0  9992,2 56802  70.0023   9.5656 0003580 270.7826 350.7675 15.73182491  1302,6727.945,91.534,352.219,347.401,0.0
56802.0,STARLINK-6070,PAYLOAD,2023-06-16 04:00:00,15.72566032,0.0003783,70.0017,8.6244,271.1234,77.2801,-0.0077599,-0.00934243,0.0,0 STARLINK-6070,1 56802U 23078AM  23167.16667824 -.00934243  00000-0 -77599-2 0  9996,2 56802  70.0017   8.6244 0003783 271.1234  77.2801 15.72566032  2805,6729.703,91.57,354.114,349.022,0.0
56802.0,STARLINK-6070,PAYLOAD,2023-06-16 14:00:01,15.71758689,0.0003664,70.002,7.4489,264.7865,281.0982,-0.0080042,-0.00931324,0.0,0 STARLINK-6070,1 56802U 23078AM  23167.58334491 -.00931324  00000-0 -80042-2 0  9997,2 56802  70.0020   7.4489 0003664 264.7865 281.0982 15.71758689  1302,6732.008,91.617,356.339,351.406,0.0
56802.0,STARLINK-6070,PAYLOAD,2023-06-16 20:00:01,15.71223461,0.0003667,70.0019,6.7442,271.1444,248.6662,-0.0076287,-0.00873848,0.0,0 STARLINK-6070,1 56802U 23078AM  23167.83334491 -.00873848  00000-0 -76287-2 0  9997,2 56802  70.0019   6.7442 0003667 271.1444 248.6662 15.71223461  2905,6733.536,91.648,357.87,352.932,0.0
56802.0,STARLINK-6070,PAYLOAD,2023-06-16 22:00:00,15.71055836,0.0003688,70.0021,6.5093,270.786,0.2272,-0.0075329,-0.00858408,0.0,0 STARLINK-6070,1 56802U 23078AM  23167.91667824 -.00858408  00000-0 -75329-2 0  9996,2 56802  70.0021   6.5093 0003688 270.7860   0.2272 15.71055836  1309,6734.015,91.658,358.364,353.397,0.0
56802.0,STARLINK-6070,PAYLOAD,2023-06-17 09:04:41,15.70517823,0.000466,70.0018,5.2109,293.3531,66.7175,-0.0039214,-0.00458335,0.0,0 STARLINK-6070,1 56802U 23078AM  23168.37825990 -.00458335  00000-0 -39214-2 0  9995,2 56802  70.0018   5.2109 0004660 293.3531  66.7175 15.70517823  2999,6735.553,91.69,360.557,354.279,0.0
56802.0,STARLINK-6070,PAYLOAD,2023-06-17 12:08:10,15.70323734,0.0003789,70.002,4.8521,267.9772,92.099,-0.0036046,-0.00419673,0.0,0 STARLINK-6070,1 56802U 23078AM  23168.50567400 -.00419673  00000-0 -36046-2 0  9991,2 56802  70.0020   4.8521 0003789 267.9772  92.0990 15.70323734  2757,6736.108,91.701,360.525,355.421,0.0
56802.0,STARLINK-6070,PAYLOAD,2023-06-17 16:43:25,15.70118043,0.0003527,70.002,4.3146,267.1402,92.939,-0.0024936,-0.0029222,0.0,0 STARLINK-6070,1 56802U 23078AM  23168.69681953 -.00292220  00000-0 -24936-2 0  9993,2 56802  70.0020   4.3146 0003527 267.1402  92.9390 15.70118043  3048,6736.696,91.713,360.937,356.185,0.0
56802.0,STARLINK-6070,PAYLOAD,2023-06-17 19:46:55,15.70050704,0.0003519,70.0019,3.9565,267.8009,92.2784,-0.001579,-0.00186901,0.0,0 STARLINK-6070,1 56802U 23078AM  23168.82425172 -.00186901  00000-0 -15790-2 0  9993,2 56802  70.0019   3.9565 0003519 267.8009  92.2784 15.70050704  2809,6736.889,91.717,361.125,356.383,0.0
56802.0,STARLINK-6070,PAYLOAD,2023-06-18 04:00:00,15.69962785,0.000357,70.0007,2.9937,268.1876,226.538,-0.00077307,-0.00092306,0.0,0 STARLINK-6070,1 56802U 23078AM  23169.16667824 -.00092306  00000-0 -77307-3 0  9991,2 56802  70.0007   2.9937 0003570 268.1876 226.5380 15.69962785  3119,6737.14,91.722,361.411,356.6,0.0
56802.0,STARLINK-6070,PAYLOAD,2023-06-18 12:00:00,15.69920282,0.0003647,70.0009,2.0564,262.0811,315.9769,0.00015944,0.00019,0.0,0 STARLINK-6070,1 56802U 23078AM  23169.50001157  .00019000  00000-0  15944-3 0  9997,2 56802  70.0009   2.0564 0003647 262.0811 315.9769 15.69920282  3160,6737.262,91.724,361.584,356.67,0.0
56802.0,STARLINK-6070,PAYLOAD,2023-06-18 12:36:12,15.69924012,0.0003301,70.0015,1.9854,258.8604,101.222,0.00025712,0.00030817,0.0,0 STARLINK-6070,1 56802U 23078AM  23169.52514711  .00030817  00000-0  25712-3 0  9997,2 56802  70.0015   1.9854 0003301 258.8604 101.2220 15.69924012  2912,6737.251,91.724,361.34,356.892,0.0
56802.0,STARLINK-6070,PAYLOAD,2023-06-18 22:00:00,15.69892325,0.0003574,70.0008,0.8847,270.604,141.6383,0.00065647,0.00079371,0.0,0 STARLINK-6070,1 56802U 23078AM  23169.91667824  .00079371  00000-0  65647-3 0  9993,2 56802  70.0008   0.8847 0003574 270.6040 141.6383 15.69892325  1303,6737.342,91.726,361.615,356.799,0.0
56802.0,STARLINK-6070,PAYLOAD,2023-06-19 04:00:00,15.69978754,0.0003552,70.0004,0.1818,268.3072,116.4221,-0.00093133,-0.00110987,0.0,0 STARLINK-6070,1 56802U 23078AM  23170.16667824 -.00110987  00000-0 -93133-3 0  9994,2 56802  70.0004   0.1818 0003552 268.3072 116.4221 15.69978754  3275,6737.095,91.721,361.353,356.567,0.0
56802.0,STARLINK-6070,PAYLOAD,2023-06-19 08:28:59,15.69952719,0.0003609,70.0008,359.6566,270.284,89.7942,0.00047221,0.00057023,0.0,0 STARLINK-6070,1 56802U 23078AM  23170.35346175  .00057023  00000-0  47221-3 0  9994,2 56802  70.0008 359.6566 0003609 270.2840  89.7942 15.69952719  3308,6737.169,91.723,361.466,356.603,0.0
56802.0,STARLINK-6070,PAYLOAD,2023-06-19 13:04:14,15.69928222,0.0003486,70.0008,359.1197,265.819,94.2608,4.1424e-05,4.772e-05,0.0,0 STARLINK-6070,1 56802U 23078AM  23170.54461331  .00004772  00000-0  41424-4 0  9990,2 56802  70.0008 359.1197 0003486 265.8190  94.2608 15.69928222  3070,6737.239,91.724,361.453,356.756,0.0
56802.0,STARLINK-6070,PAYLOAD,2023-06-19 20:00:01,15.69883682,0.0003662,70.0008,358.3076,270.7623,280.6658,0.00046672,0.00056192,0.0,0 STARLINK-6070,1 56802U 23078AM  23170.83334491  .00056192  00000-0  46672-3 0  9990,2 56802  70.0008 358.3076 0003662 270.7623 280.6658 15.69883682  3378,6737.367,91.727,361.699,356.765,0.0
56802.0,STARLINK-6070,PAYLOAD,2023-06-19 22:00:00,15.69885481,0.0003653,70.0009,358.0732,271.8916,30.3635,0.00057952,0.00069944,0.0,0 STARLINK-6070,1 56802U 23078AM  23170.91667824  .00069944  00000-0  57952-3 0  9990,2 56802  70.0009 358.0732 0003653 271.8916  30.3635 15.69885481  1307,6737.362,91.726,361.688,356.765,0.0
56802.0,STARLINK-6070,PAYLOAD,2023-06-20 12:00:00,15.69947854,0.0003605,70.0007,356.4331,265.9667,92.1069,-0.0002347,-0.00028368,0.0,0 STARLINK-6070,1 56802U 23078AM  23171.50001157 -.00028368  00000-0 -23470-3 0  9992,2 56802  70.0007 356.4331 0003605 265.9667  92.1069 15.69947854  3487,6737.183,91.723,361.477,356.619,0.0
56802.0,STARLINK-6070,PAYLOAD,2023-06-20 14:00:01,15.69971355,0.0003595,70.0009,356.1985,267.2236,201.6825,-0.00073917,-0.00088341,0.0,0 STARLINK-6070,1 56802U 23078AM  23171.58334491 -.00088341  00000-0 -73917-3 0  9998,2 56802  70.0009 356.1985 0003595 267.2236 201.6825 15.69971355  1305,6737.116,91.721,361.403,356.559,0.0
56802.0,STARLINK-6070,PAYLOAD,2023-06-20 22:00:00,15.69886907,0.000349,70.0008,355.2613,274.0921,278.174,0.00060632,0.0007322,0.0,0 STARLINK-6070,1 56802U 23078AM  23171.91667824  .00073220  00000-0  60632-3 0  9992,2 56802  70.0008 355.2613 0003490 274.0921 278.1740 15.69886907  1306,6737.358,91.726,361.574,356.871,0.0
56802.0,STARLINK-6070,PAYLOAD,2023-06-21 01:46:17,15.69928186,0.0003509,70.001,354.8193,271.4261,88.6533,0.00037482,0.00045108,0.0,0 STARLINK-6070,1 56802U 23078AM  23172.07381607  .00045108  00000-0  37482-3 0  9993,2 56802  70.0010 354.8193 0003509 271.4261  88.6533 15.69928186  3577,6737.239,91.724,361.469,356.74,0.0
56802.0,STARLINK-6070,PAYLOAD,2023-06-21 12:28:33,15.69923088,0.0003643,70.0009,353.5652,273.254,86.8239,0.00031305,0.00037598,0.0,0 STARLINK-6070,1 56802U 23078AM  23172.51983475  .00037598  00000-0  31305-3 0  9995,2 56802  70.0009 353.5652 0003643 273.2540  86.8239 15.69923088  3647,6737.254,91.724,361.573,356.665,0.0
56802.0,STARLINK-6070,PAYLOAD,2023-06-21 14:00:18,15.69930755,0.000369,70.001,353.3861,273.8524,86.225,0.00034813,0.0004187,0.0,0 STARLINK-6070,1 56802U 23078AM  23172.58355095  .00041870  00000-0  34813-3 0  9998,2 56802  70.0010 353.3861 0003690 273.8524  86.2250 15.69930755  3397,6737.232,91.724,361.583,356.611,0.0
